[
    {
        "Altitude(m)": 604234.5966081528,
        "Argument of Periapsis(deg)": 0.0,
        "Eccentricity": 0.0,
        "Inclination(deg)": 60.0,
        "Latitude(deg)": 14.117163787192407,
        "Longitude(deg)": -138.27264892316742,
        "Mean Anomaly(deg)": 163.63640000000004,
        "RAAN(deg)": 150.0,
        "Satellite Name": "Test1 670",
        "Satellite Number": 670,
        "Semi-Major Axis(m)": 6980739.136638005,
        "Time(s)": 0
    },
    {
        "Altitude(m)": 604223.4255375082,
        "Argument of Periapsis(deg)": 0.00010418945913296404,
        "Eccentricity": 0.0,
        "Inclination(deg)": 60.0,
        "Latitude(deg)": 13.582299674670367,
        "Longitude(deg)": -137.98574076833265,
        "Mean Anomaly(deg)": 164.25650614546183,
        "RAAN(deg)": 149.99957995086027,
        "Satellite Name": "Test1 670",
        "Satellite Number": 670,
        "Semi-Major Axis(m)": 6980739.136638005,
        "Time(s)": 10
    }
]